    CK15A010  2015 03 12.8917  1.997271  0.901312  244.9342  341.0295   80.2032  20200319  14.5  4.0  C/2015 A1 (PANSTARRS)                                    MPC 96279
    CK15A020  2015 08  1.8353  5.341055  1.000000  208.8369  258.5042  109.1696            10.5  4.0  C/2015 A2 (PANSTARRS)                                    MPC 93587
    PK15A030  2015 02 19.0997  1.157265  0.851774  249.2076  277.1589  172.5279  20200319  20.0  4.0  P/2015 A3 (PANSTARRS)                                    MPC 92275
    PK15B010  2015 09 17.1412  5.991324  0.369553  188.7443  353.0707   18.0240  20200319   8.5  4.0  P/2015 B1 (PANSTARRS)                                    MPC 99270
    CK15B020  2016 05  6.0794  3.368535  1.000202  284.7182  341.8710  105.0152  20200319   9.5  4.0  C/2015 B2 (PANSTARRS)                                    MPC108592
    PK15B040  2015 02  6.6498  3.749212  0.560918  227.5200  266.0261    1.7604  20200319  11.0  4.0  P/2015 B4 (Lemmon-PANSTARRS)                             MPC109141
    PK15C010  2015 04 29.1497  2.896977  0.560356  178.3940  348.8332   13.8850  20200319  12.5  4.0  P/2015 C1 (TOTAS-Gibbs)                                  MPC101096
    CK15C020  2015 03  3.9179  0.705488  0.997952  333.9531   49.4961   94.5448  20200319  14.0  4.0  C/2015 C2 (SWAN)                                         MPC 95211
    CK15D030  2016 05  3.1059  8.149056  1.003864    2.9966  157.0380  128.5434  20200319   5.5  4.0  C/2015 D3 (PANSTARRS)                                    MPC119995
    PK15D050  2014 04  2.2630  4.588486  0.488997   39.9870   74.0608   20.4936  20200319   9.0  4.0  P/2015 D5 (Kowalski)                                     MPC109141
    PK15D060  2015 07  6.9260  4.559293  0.362553  125.2656   46.1177   20.2087  20200319  10.5  4.0  P/2015 D6 (Lemmon-PANSTARRS)                             MPC 96866
    CK15E61R  2017 05 10.2923  1.041763  0.997737   68.2285  235.2002    6.3456  20200319  11.0  2.0  C/2015 ER61 (PANSTARRS)                                  MPC112390
    CK15E61b  2017 05 10.2699  1.043480  0.999096   68.3177  235.2353    6.3472  20200319  13.5  2.0  C/2015 E61-B (PANSTARRS)                                 MPEC 2018-BF5
    PK15F010  2021 10 27.3256  2.543361  0.278261  187.4087   40.4058    2.8025  20200319  12.5  4.0  P/2015 F1 (PANSTARRS)                                    MPC109142
    CK15F020  2015 04 29.3742  1.214842  0.968982  352.2318  262.4502   28.7272  20200319  16.5  4.0  C/2015 F2 (Polonia)                                      MPC 98561
    CK15F030  2015 03  7.4475  0.834551  0.995352   57.4456   31.7213   73.5549  20200319  14.5  4.0  C/2015 F3 (SWAN)                                         MPC 96279
    CK15F040  2015 08 11.8609  1.639829  0.986014   36.3198  285.9193   48.8057  20200319  11.0  4.0  C/2015 F4 (Jacques)                                      MPC115880
    CK15F050  2015 03 28.4191  0.349128  0.977582   13.4786  287.7500  149.3785  20200319  15.5  4.0  C/2015 F5 (SWAN-Xingming)                                MPC 95212
    CK15G00X  2015 08 27.5754  1.961925  0.878630  108.8134  235.4901   90.2621  20200319  14.0  4.0  C/2015 GX (PANSTARRS)                                    MPC102096
    CK15G020  2015 05 24.7991  0.779248  1.000617  257.6474  110.2479  147.6626  20200319  11.0  4.0  C/2015 G2 (MASTER)                                       MPC109142
    CK15H010  2015 03 27.1167  1.938559  0.939516   21.9412  325.8492  140.6741  20200319  13.5  4.0  C/2015 H1 (Bressi)                                       MPC 98561
    CK15H020  2016 09 14.2064  4.973217  1.005496  288.0322  350.6903   33.6696  20200319   7.5  4.0  C/2015 H2 (PANSTARRS)                                    MPC117068
    PK15H16G  2024 11  3.3570  3.093789  0.349054   47.2396   59.1850   18.8490  20200319  12.5  4.0  P/2015 HG16 (PANSTARRS)                                  MPC100280
    CK15J020  2015 09  9.9947  4.331864  0.985268  203.8955   56.7531   17.2740  20200319  10.0  4.0  C/2015 J2 (PANSTARRS)                                    MPC101096
    PK15J030  2021 04 22.0976  1.492169  0.554505  129.4316  111.3516    8.1308  20200319  16.5  4.0  P/2015 J3 (NEOWISE)                                      MPC 95733
    CK15K020  2015 06  8.9194  1.463140  0.995221   15.9427  223.7202   29.0812  20200319  20.0  4.0  C/2015 K2 (PANSTARRS)                                    MPC 95733
    CK15K040  2015 05  1.8492  2.017732  1.000925  357.7331  250.7325   80.2613  20200319  15.0  4.0  C/2015 K4 (PANSTARRS)                                    MPC 95733
    PK15K050  2015 06  6.5262  2.995144  0.554109  106.2779  134.1906   39.9469  20200319  13.5  4.0  P/2015 K5 (PANSTARRS)                                    MPC 95213
    CK15L02C  2015 05  2.2910  5.905941  1.000419  342.0319  223.6018   93.7221  20200319   8.0  4.0  C/2015 LC2 (PANSTARRS)                                   MPC111767
    CK15M010  2015 05 15.8859  2.099004  0.995344  164.1829  100.1738   57.3305  20200319  16.5  4.0  C/2015 M1 (PANSTARRS)                                    MPC 95734
    PK15M020  2015 09  6.1065  5.915127  0.181058  225.1919   86.5788    3.9735  20200319   8.5  4.0  P/2015 M2 (PANSTARRS)                                    MPC107684
    CK15M030  2015 08 26.2473  3.558040  0.974322  123.8766  143.0129   65.8778  20200319  12.0  4.0  C/2015 M3 (PANSTARRS)                                    MPC115881
    CK15O010  2018 02 19.3461  3.730312  1.000661   89.6306  299.8518  127.2234  20200319   6.5  4.0  C/2015 O1 (PANSTARRS)                                    MPC112390
    CK15P030  2015 07 27.4419  0.721959  0.997286  133.1104   87.9909   58.2001  20200319  15.5  4.0  C/2015 P3 (SWAN)                                         MPC 96280
    PK15P040  2016 01 18.9562  2.517395  0.584052  280.5984  104.7670    8.7179  20200319  14.0  4.0  P/2015 P4 (PANSTARRS)                                    MPC 99819
    PK15PM9D  2015 08 14.3988  4.824953  0.327927  352.3481  342.6517    2.0259  20200319  11.5  2.0  P/2015 PD229 (Cameron-ISON)                              MPC102952
    PK15Q010  2022 02 13.6389  1.808513  0.478773  199.8754  203.0331   22.4023  20200319  14.0  4.0  P/2015 Q1 (Scotti)                                       MPC 99819
    PK15Q020  2015 09  6.3989  1.826898  0.751261  244.4143  228.3777  146.4700  20200319  15.5  4.0  P/2015 Q2 (Pimentel)                                     MPC 96867
    PK15R010  2015 06 26.8543  2.154718  0.633641  300.3834   48.4782   22.6739  20200319  14.0  4.0  P/2015 R1 (PANSTARRS)                                    MPC 98562
    PK15R020  2024 12 14.4787  2.457852  0.452548  149.7056  168.6122   15.4723  20200319  14.5  4.0  P/2015 R2 (PANSTARRS)                                    MPC 95734
    CK15T020  2017 05 18.9084  6.933980  0.997413   30.6709   51.0472  124.5486  20200319   8.0  4.0  C/2015 T2 (PANSTARRS)                                    MPC117068
    PK15T030  2014 12 21.7056  2.127698  0.508181  178.6330  120.5019   13.0937            14.0  4.0  P/2015 T3 (PANSTARRS)                                    MPC 96280
    CK15T040  2016 06 17.4502  2.297232  0.971401  270.0578  251.8019   87.9657  20200319  11.0  4.0  C/2015 T4 (PANSTARRS)                                    MPC102953
    CK15T050  2016 01 22.1168  9.332267  0.667545   61.7992  311.0780   11.0494  20200319   7.5  4.0  C/2015 T5 (Sheppard-Tholen)                              MPC102097
    PK15T19O  2016 03  5.4005  2.927150  0.357750   89.1950  321.6438    6.4993  20200319  14.0  4.0  P/2015 TO19 (Lemmon-PANSTARRS)                           MPC102953
    PK15TK0P  2016 10 27.4322  3.387035  0.534893   82.7183    6.9818    8.7735  20200319  11.0  4.0  P/2015 TP200 (LINEAR)                                    MPC110080
    CK15TK9Q  2016 08 26.2540  1.415563  0.997924  282.1520  223.3858   11.3057  20200319  10.5  4.0  C/2015 TQ209 (LINEAR)                                    MPC101097
    CK15V010  2017 12 17.3326  4.267925  0.998998  179.6218  197.1898  139.2237  20200319   6.5  4.0  C/2015 V1 (PANSTARRS)                                    MPC115881
    CK15V020  2017 06 12.1810  1.641169  1.001842  164.9790   69.8597   49.8718  20200319   5.0  4.0  C/2015 V2 (Johnson)                                      MPC112390
    CK15V030  2015 11 24.0014  4.231568  0.993257    0.7115    2.2579   86.2419  20200319   9.0  4.0  C/2015 V3 (PANSTARRS)                                    MPC102953
    CK15V040  2016 08 28.7940  5.463549  0.704734  307.0444  179.9145   60.7652  20200319   8.5  4.0  C/2015 V4 (PANSTARRS)                                    MPC104791
    CK15V62L  2017 08 28.0554  2.714124  1.001135  128.7285   95.0899  165.8152  20200319   8.0  4.0  C/2015 VL62 (Lemmon-Yeung-PANSTARRS)                     MPC115881
    CK15W00Z  2016 04 14.0202  1.377837  0.990590   66.6677   40.1434  134.5699  20200319  15.0  4.0  C/2015 WZ (PANSTARRS)                                    MPC102098
    CK15W010  2016 05 15.1052  2.242096  0.999941   48.1978  114.3159   87.3739  20200319  13.0  4.0  C/2015 W1 (Gibbs)                                        MPC109142
    PK15W020  2015 09 30.1018  2.676654  0.633379  117.5585  294.2539   11.6070  20200319  13.0  4.0  P/2015 W2 (Catalina)                                     MPC101098
    PK15X010  2022 09  7.5615  2.109766  0.418912  218.9833  161.7735   12.1517  20200319  16.0  4.0  P/2015 X1 (PANSTARRS)                                    MPC101098
    CK15X01Y  2018 04 28.5889  7.925885  1.003826  196.2780  281.6255  148.8557  20200319   5.5  4.0  C/2015 XY1 (Lemmon)                                      MPEC 2020-AA5
    CK15X020  2015 12 18.8593  1.926393  0.878250   42.3623  101.1001   72.0883  20200319  16.0  4.0  C/2015 X2 (Catalina)                                     MPC100281
    PK15X030  2015 08  7.1803  2.815489  0.438230  306.6639   77.3319   24.3827  20200319  15.0  4.0  P/2015 X3 (PANSTARRS)                                    MPC 97498
